COSMOS 2508 (RODNIK-S *)
1 40921U 15050B   26155.14702471  .00000036  00000+0  18512-3 0  9990
2 40921  82.4879  86.2987 0015478  53.4793 306.7710 12.42913542485220
COSMOS 2509 (RODNIK-S *)
1 40922U 15050C   26155.16703954  .00000054  00000+0  32065-3 0  9999
2 40922  82.4886  86.3872 0015882  69.3326 290.9455 12.42883147485261
LINGQIAO VIDEO A        
1 40959U 15057B   26155.22223773  .00000977  00000+0  14403-3 0  9999
2 40959  97.6615 150.6642 0015761 316.2756  43.7206 14.77374746573497
LINGQIAO VIDEO B        
1 40960U 15057C   26155.19984509  .00000394  00000+0  62004-4 0  9992
2 40960  97.6581 151.8098 0015947 316.4492  43.5459 14.77479220573530
JILIN-1                 
1 40961U 15057D   26155.15147556  .00001117  00000+0  16070-3 0  9997
2 40961  97.6506 155.1658 0015691 309.6799  50.3028 14.78138445573683
FOX-1A (AO-85)          
1 40967U 15058D   26155.07149729  .00003290  00000+0  29844-3 0  9996
2 40967  64.7763 319.7410 0129768  61.7322 299.6816 14.90899033111617
SINOD-D 1               
1 40968U 15058E   26154.64038366  .00004348  00000+0  35119-3 0  9990
2 40968  64.7764 301.3323 0118307  58.5158 302.7453 14.95808519114639
ELEKTRO-L 2             
1 41105U 15074A   26155.06310514 -.00000107  00000+0  00000+0 0  9994
2 41105   6.6614  70.6831 0001330 280.5449 269.5208  1.00272364 38378
DAMPE                   
1 41173U 15078A   26155.16002412  .00001296  00000+0  46119-4 0  9994
2 41173  97.4555 160.5633 0013472 117.6259 242.6351 15.30749703582552
ORBCOMM FM114           
1 41179U 15081A   26152.97982418  .00000602  00000+0  16356-3 0  9992
2 41179  47.0052  73.9009 0001546 135.7645 224.3365 14.58838571555535
ORBCOMM FM110           
1 41182U 15081D   26153.99571428  .00000757  00000+0  19640-3 0  9994
2 41182  47.0024  68.5419 0003230 358.8742   1.2136 14.58854978555550
ORBCOMM FM112           
1 41184U 15081F   26154.92509755  .00000774  00000+0  19993-3 0  9994
2 41184  47.0002 332.9588 0002854 156.2959 203.8059 14.58883626557013
ORBCOMM FM113           
1 41185U 15081G   26152.50425721  .00000623  00000+0  16801-3 0  9995
2 41185  47.0021 344.7743 0001308 154.2176 205.8776 14.58839578556644
ORBCOMM FM108           
1 41187U 15081J   26152.94619103  .00000948  00000+0  23678-3 0  9994
2 41187  47.0049 254.2558 0002129 152.3962 207.7037 14.58851287557855
ORBCOMM FM117           
1 41188U 15081K   26153.73351514  .00000838  00000+0  21351-3 0  9996
2 41188  47.0011 249.1714 0002701 159.5688 200.5306 14.58849437558015
ORBCOMM FM116           
1 41189U 15081L   26154.94685001  .00000802  00000+0  20578-3 0  9993
2 41189  47.0035 333.2243 0001433 348.9329  11.1525 14.58862060557005
HORYU-4                 
1 41340U 16012D   26152.43486084  .00260233  00000+0  10081-2 0  9992
2 41340  30.9850 193.7734 0002292 171.6706 188.3991 15.85409012568302
ZIYUAN 3-02 (ZY 3-02)   
1 41556U 16033A   26155.16720262  .00005857  00000+0  26403-3 0  9991
2 41556  97.3834 231.1902 0012004 340.8500  19.2283 15.21348355556000
CARTOSAT-2C             
1 41599U 16040A   26155.15116778  .00003342  00000+0  16188-3 0  9992
2 41599  97.4489 215.3071 0009527 172.4899 187.6480 15.19208175551737
LAPAN-A3                
1 41603U 16040E   26155.20217951  .00003646  00000+0  11643-3 0  9997
2 41603  97.1488 151.7758 0012046  67.0872 293.1641 15.33019137552821
GAOFEN-3                
1 41727U 16049A   26155.17965652 -.00000102  00000+0 -17642-4 0  9999
2 41727  98.4008 163.1619 0001117  97.5545 262.5772 14.42213247516771
CAS-2T & KS-1Q          
1 41847U 16066G   26155.08073514  .00001943  00000+0  28010-3 0  9990
2 41847  98.3817 230.9662 0342271 169.1491 191.7333 14.44649631502905
YUNHAI-1 01             
1 41857U 16068A   26155.17647730  .00000111  00000+0  56890-4 0  9994
2 41857  98.5827 166.3045 0006518  74.4067 285.7835 14.32695427499967
RESOURCESAT-2A          
1 41877U 16074A   26155.19085101  .00000220  00000+0  12023-3 0  9993
2 41877  98.7527 228.8005 0003284 108.5085 251.6449 14.21612036492457
TANSAT                  
1 41898U 16081A   26155.22668544  .00000324  00000+0  77987-4 0  9992
2 41898  98.5359 155.1015 0020507 353.2715   6.8206 14.59939250502735
